OBJECT_NAME,OBJECT_ID,EPOCH,MEAN_MOTION,ECCENTRICITY,INCLINATION,RA_OF_ASC_NODE,ARG_OF_PERICENTER,MEAN_ANOMALY,EPHEMERIS_TYPE,CLASSIFICATION_TYPE,NORAD_CAT_ID,ELEMENT_SET_NO,REV_AT_EPOCH,BSTAR,MEAN_MOTION_DOT,MEAN_MOTION_DDOT
H-2A R/B,2006-002B,2026-06-26T22:35:37.378176,15.18185158,.00498329,98.2566,334.6539,228.3932,131.3026,0,U,28932,999,11100,.36179617E-3,.7557E-4,0
RESURS-DK 1,2006-021A,2026-06-26T19:38:41.248608,15.13254935,.00067573,69.9337,314.6217,287.2968,72.7458,0,U,29228,999,10403,.14057319E-3,.2398E-4,0
CZ-4B R/B,2006-046C,2026-06-26T21:04:25.517568,15.17850147,.0031127,97.5451,222.4549,247.2817,112.5125,0,U,29507,999,7660,.22562596E-3,.4553E-4,0
CZ-2C R/B,2007-010B,2026-06-26T22:08:41.311104,14.20278090,.00584379,98.4106,285.7978,337.7424,22.1219,0,U,31114,999,99522,.4478586E-4,.56E-6,0
COSMO-SKYMED 1,2007-023A,2026-06-26T23:02:17.564928,14.97151672,.0001793,97.8860,9.8981,89.0702,271.0725,0,U,31598,999,3125,.26537978E-3,.3006E-4,0
COSMOS 2428,2007-029A,2026-06-26T20:13:32.500992,14.12927774,.00071285,70.9372,334.2035,116.5231,243.6621,0,U,31792,999,97951,.19906324E-4,-.11E-6,0
SL-16 R/B,2007-029B,2026-06-26T19:33:20.516256,14.14854821,.00024424,70.9771,302.9897,263.5261,256.9712,0,U,31793,999,98080,-.8737656E-4,-.217E-5,0
KORONAS-FOTON,2009-003A,2026-06-26T23:35:02.664672,15.45917770,.00124471,82.4284,162.0394,116.9694,243.2828,0,U,33504,999,96261,.2627772E-3,.12858E-3,0
CZ-2C R/B,2011-030B,2026-06-26T21:40:21.468864,14.81494059,.0052202,97.8658,133.1138,356.6392,70.0826,0,U,37731,999,80626,.16201659E-3,.1244E-4,0
H-2A R/B,2012-025E,2026-06-26T22:10:22.893312,14.95760125,.00430313,98.4820,153.8720,316.4077,43.3744,0,U,38341,999,76454,.24181425E-3,.2675E-4,0
SHIJIAN-16 (SJ-16),2013-057A,2026-06-26T22:59:58.227648,14.92623138,.00165287,74.9729,338.1756,208.1123,151.9175,0,U,39358,999,68780,.14728083E-3,.1491E-4,0
SL-4 R/B,2014-021B,2026-06-26T23:30:01.451808,15.42138707,.00907663,51.6028,162.7932,141.6698,219.0784,0,U,39679,999,67312,.22441632E-3,.1089E-3,0
ALOS-2,2014-029A,2026-06-26T21:04:45.192576,14.79471532,.00015771,97.9221,274.9032,89.2522,270.8870,0,U,39766,999,65301,.16185833E-3,.1158E-4,0
YAOGAN-29,2015-069A,2026-06-26T23:03:21.156192,14.83091759,.00020552,98.0029,206.6085,39.2188,320.9174,0,U,41038,999,57207,.56357203E-4,.405E-5,0
ASTRO-H (HITOMI),2016-012A,2026-06-26T22:42:32.659776,15.10552605,.00097089,31.0006,11.1594,350.9373,9.1089,0,U,41337,999,56876,.157046E-3,.2752E-4,0
HXMT (HUIYAN),2017-034A,2026-06-26T22:26:38.725152,15.18539477,.00321065,43.0133,128.7574,209.1031,150.8028,0,U,42758,999,49914,.23170766E-3,.4694E-4,0
SAOCOM 1A,2018-076A,2026-06-26T23:49:20.351424,14.82154636,.00015495,97.8885,4.5988,79.5044,280.6344,0,U,43641,999,41755,.48057255E-4,.33E-5,0
H-2A R/B,2018-084L,2026-06-26T15:31:24.477312,15.45508694,.00223967,98.8571,58.6058,8.1824,351.9781,0,U,43682,999,42258,.42231271E-3,.2036E-3,0
SAOCOM 1B,2020-059A,2026-06-26T22:57:00.705888,14.82145864,.00015595,97.8887,3.6579,89.7654,270.3738,0,U,46265,999,31493,.55312348E-4,.388E-5,0
CSS (TIANHE),2021-035A,2026-06-26T21:26:46.575168,15.61230203,.00080379,41.4690,262.9148,159.7037,200.4122,0,U,48274,999,29468,.26301828E-3,.22691E-3,0
COSMOS 2550,2021-056A,2026-06-26T20:53:22.873632,15.33859132,.00084236,67.1438,70.6150,267.9632,92.0558,0,U,48865,999,28020,.16789142E-3,.5341E-4,0
CZ-2C R/B,2022-058K,2026-06-26T00:07:58.430496,15.62450808,.00318971,50.1846,117.6128,304.0762,55.7186,0,U,52794,999,22702,.43629874E-3,.40257E-3,0
CZ-2C R/B,2022-132E,2026-06-26T22:55:22.850112,15.72696486,.00139648,97.2895,185.4217,52.9858,307.2681,0,U,54039,999,20748,.4873528E-3,.66094E-3,0
GSLV R/B,2022-138AN,2026-06-26T22:36:51.078240,14.97300331,.0023978,87.3809,129.7082,111.2971,249.0824,0,U,54149,999,20027,.29089521E-3,.342E-4,0
XRISM,2023-137A,2026-06-26T15:03:53.851104,15.12542851,.0007828,31.0027,298.4476,58.7511,301.3894,0,U,57800,999,15429,.26042E-3,.4753E-4,0
ACS3,2024-077B,2026-06-26T12:48:59.385024,13.94542288,.0095187,97.1683,94.2429,57.1858,303.8432,0,U,59588,999,10934,.36073E-2,.4974E-4,0
CZ-8A R/B,2025-231K,2026-06-26T21:42:10.475424,14.30157379,.01164882,50.0056,357.9752,258.2074,100.5756,0,U,66004,999,3633,.56073048E-4,-.6E-7,0
SZ-21 MODULE,2025-246C,2026-06-26T14:09:05.760000,15.77194503,.0005018,41.4719,248.7328,65.4550,294.6818,0,U,66515,999,3522,.26051E-3,.43902E-3,0
