H-2A R/B                
1 28932U 06002B   26177.94140484  .00007557  00000+0  36180-3 0  9993
2 28932  98.2566 334.6539 0049832 228.3932 131.3026 15.18185158111002
RESURS-DK 1             
1 29228U 06021A   26177.81853297  .00002398  00000+0  14057-3 0  9999
2 29228  69.9337 314.6217 0006757 287.2968  72.7458 15.13254935104032
CZ-4B R/B               
1 29507U 06046C   26177.87807312  .00004553  00000+0  22563-3 0  9995
2 29507  97.5451 222.4549 0031127 247.2817 112.5125 15.17850147 76604
CZ-2C R/B               
1 31114U 07010B   26177.92270036  .00000056  00000+0  44786-4 0  9993
2 31114  98.4106 285.7978 0058437 337.7424  22.1219 14.20278090995220
COSMO-SKYMED 1          
1 31598U 07023A   26177.95992552  .00003006  00000+0  26538-3 0  9992
2 31598  97.8860   9.8981 0001793  89.0702 271.0725 14.97151672 31255
COSMOS 2428             
1 31792U 07029A   26177.84273728 -.00000011  00000+0  19906-4 0  9995
2 31792  70.9372 334.2035 0007128 116.5231 243.6621 14.12927774979518
SL-16 R/B               
1 31793U 07029B   26177.81482079 -.00000217  00000+0 -87377-4 0  9990
2 31793  70.9771 302.9897 0002442 263.5261 256.9712 14.14854821980806
KORONAS-FOTON           
1 33504U 09003A   26177.98266973  .00012858  00000+0  26278-3 0  9991
2 33504  82.4284 162.0394 0012447 116.9694 243.2828 15.45917770962613
CZ-2C R/B               
1 37731U 11030B   26177.90302626  .00001244  00000+0  16202-3 0  9991
2 37731  97.8658 133.1138 0052202 356.6392  70.0826 14.81494059806261
H-2A R/B                
1 38341U 12025E   26177.92387608  .00002675  00000+0  24181-3 0  9993
2 38341  98.4820 153.8720 0043031 316.4077  43.3744 14.95760125764548
SHIJIAN-16 (SJ-16)      
1 39358U 13057A   26177.95831282  .00001491  00000+0  14728-3 0  9994
2 39358  74.9729 338.1756 0016528 208.1123 151.9175 14.92623138687807
SL-4 R/B                
1 39679U 14021B   26177.97918347  .00010890  00000+0  22442-3 0  9997
2 39679  51.6028 162.7932 0090766 141.6698 219.0784 15.42138707673129
ALOS-2                  
1 39766U 14029A   26177.87830084  .00001158  00000+0  16186-3 0  9997
2 39766  97.9221 274.9032 0001577  89.2522 270.8870 14.79471532653018
YAOGAN-29               
1 41038U 15069A   26177.96066153  .00000405  00000+0  56357-4 0  9994
2 41038  98.0029 206.6085 0002055  39.2188 320.9174 14.83091759572070
ASTRO-H (HITOMI)        
1 41337U 16012A   26177.94621134  .00002752  00000+0  15705-3 0  9997
2 41337  31.0006  11.1594 0009708 350.9373   9.1089 15.10552605568764
HXMT (HUIYAN)           
1 42758U 17034A   26177.93517043  .00004694  00000+0  23171-3 0  9995
2 42758  43.0133 128.7574 0032106 209.1031 150.8028 15.18539477499145
SAOCOM 1A               
1 43641U 18076A   26177.99259666  .00000330  00000+0  48057-4 0  9998
2 43641  97.8885   4.5988 0001549  79.5044 280.6344 14.82154636417556
H-2A R/B                
1 43682U 18084L   26177.64681108  .00020360  00000+0  42231-3 0  9996
2 43682  98.8571  58.6058 0022396   8.1824 351.9781 15.45508694422582
SAOCOM 1B               
1 46265U 20059A   26177.95625817  .00000388  00000+0  55312-4 0  9993
2 46265  97.8887   3.6579 0001559  89.7654 270.3738 14.82145864314934
CSS (TIANHE)            
1 48274U 21035A   26177.89359462  .00022691  00000+0  26302-3 0  9990
2 48274  41.4690 262.9148 0008037 159.7037 200.4122 15.61230203294686
COSMOS 2550             
1 48865U 21056A   26177.87040363  .00005341  00000+0  16789-3 0  9995
2 48865  67.1438  70.6150 0008423 267.9632  92.0558 15.33859132280204
CZ-2C R/B               
1 52794U 22058K   26177.00553739  .00040257  00000+0  43630-3 0  9995
2 52794  50.1846 117.6128 0031897 304.0762  55.7186 15.62450808227023
CZ-2C R/B               
1 54039U 22132E   26177.95512558  .00066094  00000+0  48735-3 0  9998
2 54039  97.2895 185.4217 0013964  52.9858 307.2681 15.72696486207483
GSLV R/B                
1 54149U 22138AN  26177.94225785  .00003420  00000+0  29090-3 0  9995
2 54149  87.3809 129.7082 0023978 111.2971 249.0824 14.97300331200271
XRISM                   
1 57800U 23137A   26177.62770661  .00004753  00000+0  26042-3 0  9999
2 57800  31.0027 298.4476 0007828  58.7511 301.3894 15.12542851154290
ACS3                    
1 59588U 24077B   26177.53402066  .00004974  00000+0  36073-2 0  9998
2 59588  97.1683  94.2429 0095187  57.1858 303.8432 13.94542288109341
CZ-8A R/B               
1 66004U 25231K   26177.90428791 -.00000006  00000+0  56073-4 0  9993
2 66004  50.0056 357.9752 0116488 258.2074 100.5756 14.30157379 36337
SZ-21 MODULE            
1 66515U 25246C   26177.58965000  .00043902  00000+0  26051-3 0  9992
2 66515  41.4719 248.7328 0005018  65.4550 294.6818 15.77194503 35226
